[Satellite]
VERSION=1.1
NAME=STARLINK-1150
NICKNAME=STARLINK-1150
TLE1=1 45067U 20006Z   20058.91667824  .00426045  00000-0  28966-2 0  9992
TLE2=2 45067  52.9967  88.1210 0001283  59.9818 275.7630 15.73129816  5004
STATUS=0
